COMMENT,ORIGINATOR,NORAD_CAT_ID,OBJECT_NAME,OBJECT_TYPE,CLASSIFICATION_TYPE,INTLDES,EPOCH,EPOCH_MICROSECONDS,MEAN_MOTION,ECCENTRICITY,INCLINATION,RA_OF_ASC_NODE,ARG_OF_PERICENTER,MEAN_ANOMALY,EPHEMERIS_TYPE,ELEMENT_SET_NO,REV_AT_EPOCH,BSTAR,MEAN_MOTION_DOT,MEAN_MOTION_DDOT,FILE,TLE_LINE0,TLE_LINE1,TLE_LINE2,OBJECT_ID,OBJECT_NUMBER,SEMIMAJOR_AXIS,PERIOD,APOGEE,PERIGEE,DECAYED
GENERATED VIA SPACETRACK.ORG API,18 SPCS,58292,UMBRA-08,PAYLOAD,U,23174AN,2024-09-18 04:45:19,203552,15.16579193,0.0003067,97.4474,333.3323,123.0296,237.1232,0,999,4768,0.0028481,0.00055929,0,4498075,0 UMBRA-08,1 58292U 23174AN  24262.19813893  .00055929  00000-0  28481-2 0  9996,2 58292  97.4474 333.3323 0003067 123.0296 237.1232 15.16579193 47684,2023-174AN,58292,6894.325,94.951,518.305,514.076,1
GENERATED VIA SPACETRACK.ORG API,18 SPCS,58292,UMBRA-08,PAYLOAD,U,23174AN,2024-09-18 04:45:19,203552,15.16579193,0.0003067,97.4474,333.3323,123.0296,237.1232,0,999,4768,0.0028481,0.00055929,0,4498437,0 UMBRA-08,1 58292U 23174AN  24262.19813893  .00055929  00000-0  28481-2 0  9996,2 58292  97.4474 333.3323 0003067 123.0296 237.1232 15.16579193 47684,2023-174AN,58292,6894.325,94.951,518.305,514.076,1
GENERATED VIA SPACETRACK.ORG API,18 SPCS,58292,UMBRA-08,PAYLOAD,U,23174AN,2024-09-18 19:00:24,649344,15.16615658,0.0002986,97.4469,333.9156,121.0399,239.1127,0,999,4777,0.0018816,0.00036869,0,4498664,0 UMBRA-08,1 58292U 23174AN  24262.79195196  .00036869  00000-0  18816-2 0  9994,2 58292  97.4469 333.9156 0002986 121.0399 239.1127 15.16615658 47771,2023-174AN,58292,6894.215,94.948,518.139,514.021,1
GENERATED VIA SPACETRACK.ORG API,18 SPCS,58292,UMBRA-08,PAYLOAD,U,23174AN,2024-09-18 19:00:24,649344,15.16615658,0.0002986,97.4469,333.9156,121.0399,239.1127,0,999,4777,0.0018816,0.00036869,0,4498850,0 UMBRA-08,1 58292U 23174AN  24262.79195196  .00036869  00000-0  18816-2 0  9994,2 58292  97.4469 333.9156 0002986 121.0399 239.1127 15.16615658 47771,2023-174AN,58292,6894.215,94.948,518.139,514.021,1
GENERATED VIA SPACETRACK.ORG API,18 SPCS,58292,UMBRA-08,PAYLOAD,U,23174AN,2024-09-19 12:25:29,252352,15.16672283,0.0002955,97.4466,334.6283,120.4473,239.7053,0,999,4788,0.0020626,0.00040507,0,4499371,0 UMBRA-08,1 58292U 23174AN  24263.51769968  .00040507  00000-0  20626-2 0  9995,2 58292  97.4466 334.6283 0002955 120.4473 239.7053 15.16672283 47882,2023-174AN,58292,6894.043,94.945,517.946,513.871,1
GENERATED VIA SPACETRACK.ORG API,18 SPCS,58292,UMBRA-08,PAYLOAD,U,23174AN,2024-09-19 15:35:29,791104,15.1668927,0.0002942,97.4464,334.7579,120.471,239.6814,0,999,4790,0.0023888,0.00046988,0,4499627,0 UMBRA-08,1 58292U 23174AN  24263.64965036  .00046988  00000-0  23888-2 0  9995,2 58292  97.4464 334.7579 0002942 120.4710 239.6814 15.16689270 47900,2023-174AN,58292,6893.992,94.944,517.885,513.829,1
GENERATED VIA SPACETRACK.ORG API,18 SPCS,58292,UMBRA-08,PAYLOAD,U,23174AN,2024-09-20 10:35:31,494336,15.16748897,0.0002909,97.4459,335.5352,119.5853,240.567,0,999,4802,0.0020816,0.00040972,0,4500100,0 UMBRA-08,1 58292U 23174AN  24264.44133674  .00040972  00000-0  20816-2 0  9994,2 58292  97.4459 335.5352 0002909 119.5853 240.5670 15.16748897 48028,2023-174AN,58292,6893.811,94.940,517.682,513.671,1
GENERATED VIA SPACETRACK.ORG API,18 SPCS,58292,UMBRA-08,PAYLOAD,U,23174AN,2024-09-20 10:35:31,494336,15.16748897,0.0002909,97.4459,335.5352,119.5853,240.567,0,999,4802,0.0020816,0.00040972,0,4500145,0 UMBRA-08,1 58292U 23174AN  24264.44133674  .00040972  00000-0  20816-2 0  9994,2 58292  97.4459 335.5352 0002909 119.5853 240.5670 15.16748897 48028,2023-174AN,58292,6893.811,94.940,517.682,513.671,1
GENERATED VIA SPACETRACK.ORG API,18 SPCS,58292,UMBRA-08,PAYLOAD,U,23174AN,2024-09-21 04:00:30,858912,15.16798771,0.0002826,97.4455,336.2477,118.3886,241.7632,0,999,4813,0.0019986,0.00039383,0,4501108,0 UMBRA-08,1 58292U 23174AN  24265.16702383  .00039383  00000-0  19986-2 0  9993,2 58292  97.4455 336.2477 0002826 118.3886 241.7632 15.16798771 48130,2023-174AN,58292,6893.660,94.937,517.473,513.577,1
GENERATED VIA SPACETRACK.ORG API,18 SPCS,58292,UMBRA-08,PAYLOAD,U,23174AN,2024-09-21 04:00:30,858912,15.16798771,0.0002826,97.4455,336.2477,118.3886,241.7632,0,999,4813,0.0019986,0.00039383,0,4501119,0 UMBRA-08,1 58292U 23174AN  24265.16702383  .00039383  00000-0  19986-2 0  9993,2 58292  97.4455 336.2477 0002826 118.3886 241.7632 15.16798771 48130,2023-174AN,58292,6893.660,94.937,517.473,513.577,1
GENERATED VIA SPACETRACK.ORG API,18 SPCS,58292,UMBRA-08,PAYLOAD,U,23174AN,2024-09-22 03:45:26,691552,15.16864834,0.0002771,97.4454,337.2193,115.6658,244.4862,0,999,4828,0.0018743,0.00036987,0,4501778,0 UMBRA-08,1 58292U 23174AN  24266.15655893  .00036987  00000-0  18743-2 0  9993,2 58292  97.4454 337.2193 0002771 115.6658 244.4862 15.16864834 48286,2023-174AN,58292,6893.460,94.933,517.235,513.415,1
GENERATED VIA SPACETRACK.ORG API,18 SPCS,58292,UMBRA-08,PAYLOAD,U,23174AN,2024-09-22 11:40:24,420864,15.16887948,0.0002787,97.4453,337.5433,114.1666,245.9859,0,999,4833,0.0018551,0.0003663,0,4502159,0 UMBRA-08,1 58292U 23174AN  24266.48639376  .00036630  00000-0  18551-2 0  9999,2 58292  97.4453 337.5433 0002787 114.1666 245.9859 15.16887948 48334,2023-174AN,58292,6893.390,94.931,517.176,513.334,1
GENERATED VIA SPACETRACK.ORG API,18 SPCS,58292,UMBRA-08,PAYLOAD,U,23174AN,2024-09-23 05:05:17,914560,15.1694052,0.0002806,97.4452,338.2558,111.6801,248.4731,0,999,4844,0.0019088,0.00037754,0,4502717,0 UMBRA-08,1 58292U 23174AN  24267.21201290  .00037754  00000-0  19088-2 0  9995,2 58292  97.4452 338.2558 0002806 111.6801 248.4731 15.16940520 48449,2023-174AN,58292,6893.231,94.928,517.030,513.161,1
GENERATED VIA SPACETRACK.ORG API,18 SPCS,58292,UMBRA-08,PAYLOAD,U,23174AN,2024-09-23 11:25:15,35808,15.1696195,0.0002815,97.4453,338.5149,110.9093,249.2442,0,999,4848,0.0021687,0.00042961,0,4503058,0 UMBRA-08,1 58292U 23174AN  24267.47586847  .00042961  00000-0  21687-2 0  9991,2 58292  97.4453 338.5149 0002815 110.9093 249.2442 15.16961950 48486,2023-174AN,58292,6893.166,94.927,516.971,513.090,1
GENERATED VIA SPACETRACK.ORG API,18 SPCS,58292,UMBRA-08,PAYLOAD,U,23174AN,2024-09-24 11:10:00,998976,15.17048393,0.0002893,97.4451,339.4866,107.9861,252.1688,0,999,4863,0.0022549,0.00044793,0,4504050,0 UMBRA-08,1 58292U 23174AN  24268.46528934  .00044793  00000-0  22549-2 0  9997,2 58292  97.4451 339.4866 0002893 107.9861 252.1688 15.17048393 48635,2023-174AN,58292,6892.904,94.921,516.763,512.775,1
GENERATED VIA SPACETRACK.ORG API,18 SPCS,58292,UMBRA-08,PAYLOAD,U,23174AN,2024-09-24 11:10:00,998976,15.17048393,0.0002893,97.4451,339.4866,107.9861,252.1688,0,999,4863,0.0022549,0.00044793,0,4504155,0 UMBRA-08,1 58292U 23174AN  24268.46528934  .00044793  00000-0  22549-2 0  9997,2 58292  97.4451 339.4866 0002893 107.9861 252.1688 15.17048393 48635,2023-174AN,58292,6892.904,94.921,516.763,512.775,1
GENERATED VIA SPACETRACK.ORG API,18 SPCS,58292,UMBRA-08,PAYLOAD,U,23174AN,2024-09-25 04:34:47,295552,15.17128964,0.0002819,97.4453,340.1994,106.3429,253.8115,0,999,4874,0.0029066,0.00057995,0,4504690,0 UMBRA-08,1 58292U 23174AN  24269.19082518  .00057995  00000-0  29066-2 0  9990,2 58292  97.4453 340.1994 0002819 106.3429 253.8115 15.17128964 48747,2023-174AN,58292,6892.660,94.916,516.468,512.582,1
GENERATED VIA SPACETRACK.ORG API,18 SPCS,58292,UMBRA-08,PAYLOAD,U,23174AN,2024-09-25 10:54:41,498208,15.17157617,0.0002815,97.4453,340.4584,105.6645,254.4899,0,999,4878,0.0029354,0.00058623,0,4505134,0 UMBRA-08,1 58292U 23174AN  24269.45464697  .00058623  00000-0  29354-2 0  9990,2 58292  97.4453 340.4584 0002815 105.6645 254.4899 15.17157617 48780,2023-174AN,58292,6892.573,94.914,516.378,512.498,1
GENERATED VIA SPACETRACK.ORG API,18 SPCS,58292,UMBRA-08,PAYLOAD,U,23174AN,2024-09-25 21:59:30,214752,15.17212331,0.0002739,97.4452,340.912,104.5912,255.5626,0,999,4885,0.0030541,0.00061112,0,4505447,0 UMBRA-08,1 58292U 23174AN  24269.91632193  .00061112  00000-0  30541-2 0  9996,2 58292  97.4452 340.9120 0002739 104.5912 255.5626 15.17212331 48853,2023-174AN,58292,6892.407,94.911,516.160,512.384,1
GENERATED VIA SPACETRACK.ORG API,18 SPCS,58292,UMBRA-08,PAYLOAD,U,23174AN,2024-09-26 12:14:13,556832,15.17277329,0.0002599,97.4452,341.4953,102.8583,257.2941,0,999,4894,0.0025177,0.00050386,0,4506166,0 UMBRA-08,1 58292U 23174AN  24270.50987913  .00050386  00000-0  25177-2 0  9996,2 58292  97.4452 341.4953 0002599 102.8583 257.2941 15.17277329 48949,2023-174AN,58292,6892.210,94.907,515.867,512.284,1
GENERATED VIA SPACETRACK.ORG API,18 SPCS,58292,UMBRA-08,PAYLOAD,U,23174AN,2024-09-26 18:34:05,494944,15.17305123,0.0002533,97.4451,341.7543,102.5311,257.6206,0,999,4898,0.002532,0.00050715,0,4506475,0 UMBRA-08,1 58292U 23174AN  24270.77367471  .00050715  00000-0  25320-2 0  9992,2 58292  97.4451 341.7543 0002533 102.5311 257.6206 15.17305123 48986,2023-174AN,58292,6892.126,94.905,515.737,512.245,1
GENERATED VIA SPACETRACK.ORG API,18 SPCS,58292,UMBRA-08,PAYLOAD,U,23174AN,2024-09-27 04:03:52,605504,15.17346209,0.0002494,97.4452,342.1429,102.7377,257.4135,0,999,4904,0.002347,0.00047036,0,4507270,0 UMBRA-08,1 58292U 23174AN  24271.16935886  .00047036  00000-0  23470-2 0  9993,2 58292  97.4452 342.1429 0002494 102.7377 257.4135 15.17346209 49042,2023-174AN,58292,6892.002,94.903,515.586,512.148,1
GENERATED VIA SPACETRACK.ORG API,18 SPCS,58292,UMBRA-08,PAYLOAD,U,23174AN,2024-09-28 02:13:18,875712,15.17447029,0.0002387,97.4455,343.0502,99.634,260.5163,0,999,4918,0.0024938,0.00050148,0,4507726,0 UMBRA-08,1 58292U 23174AN  24272.09257958  .00050148  00000-0  24938-2 0  9991,2 58292  97.4455 343.0502 0002387  99.6340 260.5163 15.17447029 49185,2023-174AN,58292,6891.697,94.896,515.207,511.917,1
